[{"OBJECT_NAME":"STARLINK-3147","OBJECT_ID":"2021-104C","EPOCH":"2026-03-09T15:41:45.958560","MEAN_MOTION":15.0883702,"ECCENTRICITY":0.0001184,"INCLINATION":53.217,"RA_OF_ASC_NODE":229.2892,"ARG_OF_PERICENTER":91.9507,"MEAN_ANOMALY":268.1621,"EPHEMERIS_TYPE":0,"CLASSIFICATION_TYPE":"U","NORAD_CAT_ID":49410,"ELEMENT_SET_NO":999,"REV_AT_EPOCH":23862,"BSTAR":-1.082008e-6,"MEAN_MOTION_DOT":-3.05e-6,"MEAN_MOTION_DDOT":0},{"OBJECT_NAME":"NANOFF A","OBJECT_ID":"2023-185T","EPOCH":"2026-03-09T23:34:34.415328","MEAN_MOTION":15.11542977,"ECCENTRICITY":0.00086783,"INCLINATION":97.5359,"RA_OF_ASC_NODE":137.8345,"ARG_OF_PERICENTER":292.8968,"MEAN_ANOMALY":67.1346,"EPHEMERIS_TYPE":0,"CLASSIFICATION_TYPE":"U","NORAD_CAT_ID":58810,"ELEMENT_SET_NO":999,"REV_AT_EPOCH":11805,"BSTAR":0.00027314844,"MEAN_MOTION_DOT":4.57e-5,"MEAN_MOTION_DDOT":0}]
